CCSDS_OEM_VERS = 2.0  
CREATION_DATE  = 2026-03-24T10:38:19
ORIGINATOR     = ESOC/OPS-GFA                            
 
 



META_START
OBJECT_NAME          = LISA                                    
OBJECT_ID            = -1000                                   
CENTER_NAME          = SUN                     
REF_FRAME            = EME2000 
TIME_SYSTEM          = TCB
START_TIME           = 2036-12-23T00:00:30.346418            
STOP_TIME            = 2047-09-07T04:20:50.647794            
INTERPOLATION        = HERMITE                                 
INTERPOLATION_DEGREE = 7                                       
META_STOP

2041-08-03T04:53:59.381525     5.56071724302288517e+07   -1.26725821542984203e+08   -5.58252128080345020e+07    2.77572787250794875e+01    1.00471112081825513e+01    4.55803940228512072e+00   -2.22075577150486652e-06    5.06130066601250201e-06    2.22960427365555220e-06
2041-08-04T01:02:29.835242     5.76139570987384990e+07   -1.25984021763923109e+08   -5.54888578907136843e+07    2.75933548975585232e+01    1.04130124301172167e+01    4.71921234739443740e+00   -2.30054499253771598e-06    5.03089438848209722e-06    2.21582719629050478e-06
2041-08-04T21:11:00.288958     5.96086462648346871e+07   -1.25215771179535493e+08   -5.51408528751042858e+07    2.74236639926889119e+01    1.07766705286419349e+01    4.87936942304329335e+00   -2.37982181600714050e-06    4.99943154140077354e-06    2.20158488012358382e-06
2041-08-05T17:19:30.742673     6.15908231437520087e+07   -1.24421235238599479e+08   -5.47812726546658054e+07    2.72482437743474364e+01    1.11380091601215696e+01    5.03847701588628460e+00   -2.45856944947198040e-06    4.96691957638212082e-06    2.18688068944206386e-06
2041-08-06T13:28:01.196389     6.35600737246692479e+07   -1.23600584898105770e+08   -5.44101945478679091e+07    2.70671332186975953e+01    1.14969525299488442e+01    5.19650176035800815e+00   -2.53677124823584690e-06    4.93336618446455882e-06    2.17171809394458296e-06
2041-08-07T09:36:31.650106     6.55159868469761312e+07   -1.22753996571673930e+08   -5.40276982750631198e+07    2.68803725034152876e+01    1.18534254096846396e+01    5.35341054621848844e+00   -2.61441071657552482e-06    4.89877928925722712e-06    2.15610066569799683e-06
2041-08-08T05:45:02.103822     6.74581542818560302e+07   -1.21881652082558587e+08   -5.36338659373676479e+07    2.66880029969263077e+01    1.22073531535329636e+01    5.50917052580377664e+00   -2.69147150618951913e-06    4.86316703545773093e-06    2.14003207405475977e-06
2041-08-09T01:53:32.557537     6.93861708233477920e+07   -1.20983738625272393e+08   -5.32287819993147179e+07    2.64900672478568922e+01    1.25586617138158569e+01    5.66374912083418103e+00   -2.76793741186488425e-06    4.82653777272224264e-06    2.12351607852238318e-06
2041-08-09T22:02:03.011254     7.12996343930485696e+07   -1.20060448739852369e+08   -5.28125332770445123e+07    2.62866089748982290e+01    1.29072776551134165e+01    5.81711402863268301e+00   -2.84379236439816396e-06    4.78890003499602766e-06    2.10655651963276856e-06
2041-08-10T18:10:33.464970     7.31981461626219451e+07   -1.19111980302796528e+08   -5.23852089337952361e+07    2.60776730572861233e+01    1.32531281667342640e+01    5.96923322760594743e+00   -2.91902042071711491e-06    4.75026251515613162e-06    2.08915730774564699e-06
2041-08-11T14:19:03.918686     7.50813106982721686e+07   -1.18138536538697228e+08   -5.19469004844592214e+07    2.58633055260968234e+01    1.35961410731815011e+01    6.12007498184044696e+00   -2.99360575122019238e-06    4.71063403500878305e-06    2.07132240980530667e-06
2041-08-12T10:30:25.104865     7.69531140295660943e+07   -1.17137946409435093e+08   -5.14966312636972368e+07    2.56430298022450209e+01    1.39370421794866814e+01    6.26995837340865148e+00   -3.06770627623402438e-06    4.66992739633758734e-06    2.05301260747827394e-06
2041-08-13T06:41:46.291045     7.88087123437873423e+07   -1.16112687574939042e+08   -5.10355170856335163e+07    2.54173928701166396e+01    1.42749491219155935e+01    6.41849535970500806e+00   -3.14112991189298709e-06    4.62824392784692093e-06    2.03427350958333432e-06
2041-08-14T02:53:07.477225     8.06477178142062426e+07   -1.15062980240495071e+08   -5.05636569448830113e+07    2.51864444826946681e+01    1.46097912563568428e+01    6.56565489745798114e+00   -3.21386138155310896e-06    4.58559336784605797e-06    2.01510948633252553e-06
2041-08-14T23:04:28.663405     8.24697462131288797e+07   -1.13989049686846122e+08   -5.00811520662780255e+07    2.49502354987743580e+01    1.49414986519006199e+01    6.71140626340354274e+00   -3.28588553681714561e-06    4.54198560679526099e-06    1.99552497473766613e-06
2041-08-15T19:15:49.849585     8.42744170409779549e+07   -1.12891126247399420e+08   -4.95881058942557573e+07    2.47088178728079342e+01    1.52700021025488049e+01    6.85571905942484783e+00   -3.35718737979882860e-06    4.49743070447451963e-06    1.97552448610766643e-06
2041-08-16T15:27:11.035765     8.60613536311994195e+07   -1.11769445270414084e+08   -4.90846240757016763e+07    2.44622446432729070e+01    1.55952331400238844e+01    6.99856321817150384e+00   -3.42775208153338359e-06    4.45193890314411660e-06    1.95511261178941293e-06
2041-08-17T11:38:32.221944     8.78301832360983640e+07   -1.10624247069237694e+08   -4.85708144375851303e+07    2.42105699198421540e+01    1.59171240473888354e+01    7.13990900903232095e+00   -3.49756499654044879e-06    4.40552063670211355e-06    1.93429402715446312e-06
2041-08-18T07:49:53.408124     8.95805370986883938e+07   -1.09455776863667980e+08   -4.80467869607268795e+07    2.39538488696355536e+01    1.62356078731868614e+01    7.27972704433394835e+00   -3.56661167353178864e-06    4.35818653582877347e-06    1.91307349382713766e-06
2041-08-19T04:01:14.594304     9.13120505156390667e+07   -1.08264284715515688e+08   -4.75126537510382608e+07    2.36921377028331221e+01    1.65506184458097181e+01    7.41798828563777946e+00   -3.63487786227668128e-06    4.30994742913562947e-06    1.89145586016178286e-06
2041-08-20T00:12:35.780484     9.30243628964059651e+07   -1.07050025461444676e+08   -4.69685290095717162e+07    2.34254936579294011e+01    1.68620903878034660e+01    7.55466405000752772e+00   -3.70234951660424805e-06    4.26081434029048726e-06    1.86944605995663514e-06
2041-08-20T20:23:56.966663     9.47171178236276507e+07   -1.05813258646165520e+08   -4.64145290027223974e+07    2.31539749869090166e+01    1.71699591298204446e+01    7.68972601611986040e+00   -3.76901279357218851e-06    4.21079848115776611e-06    1.84704910942159139e-06
2041-08-21T16:35:18.152843     9.63899631198742092e+07   -1.04554248459058657e+08   -4.58507720339205116e+07    2.28776409406231878e+01    1.74741609239262701e+01    7.82314623009048926e+00   -3.83485404877565653e-06    4.15991124092299389e-06    1.82427010238607297e-06
2041-08-22T12:46:39.339022     9.80425509258316904e+07   -1.03273263677303255e+08   -4.52773784181542546e+07    2.25965517546471091e+01    1.77746328559707010e+01    7.95489711088810125e+00   -3.89985982778986647e-06    4.10816417118264535e-06    1.80111420373886299e-06
2041-08-23T08:58:00.525202     9.96745377950070202e+07   -1.01970577618587583e+08   -4.46944704606628343e+07    2.23107686358979755e+01    1.80713128567310619e+01    8.08495145520855019e+00   -3.96401685380793276e-06    4.05556896709687723e-06    1.77758664114282338e-06
2041-08-24T05:09:21.711382     1.01285584810037941e+08   -1.00646468106477737e+08   -4.41021724411396086e+07    2.20203537502935482e+01    1.83641397115372094e+01    8.21328244168164723e+00   -4.02731201138532293e-06    4.00213744447264530e-06    1.75369269496596443e-06
2041-08-25T01:20:42.897562     1.02875357725691959e+08   -9.93012174515201300e+07   -4.35006106047846302e+07    2.17253702117310823e+01    1.86530530680866242e+01    8.33986363428302724e+00   -4.08973232631790475e-06    3.94788151281452360e-06    1.72943768644563952e-06
2041-08-25T21:32:19.833235     1.04443864299300075e+08   -9.79348140325116962e+07   -4.28897797800076380e+07    2.14258166751830039e+01    1.89380547699338813e+01    8.46469584284821153e+00   -4.15127870808310051e-06    3.89280169592328214e-06    1.70482184360969972e-06
2041-08-26T17:43:56.768909     1.05990432421259835e+08   -9.65478381238096207e+07   -4.22699393952936158e+07    2.11218215535033558e+01    1.92190231805825036e+01    8.58772579221195898e+00   -4.21192485726930325e-06    3.83692180658169920e-06    1.67985580751217297e-06
2041-08-27T13:55:33.704582     1.07514741624622509e+08   -9.51405850438500792e+07   -4.16412213929479197e+07    2.08134507326792857e+01    1.94959005941436061e+01    8.70892822832432323e+00   -4.27165864243967766e-06    3.78025443314626123e-06    1.65454519618730974e-06
2041-08-28T10:07:10.640255     1.09016476200907961e+08   -9.37133542526151836e+07   -4.10037595276337191e+07    2.05007709749795168e+01    1.97686302239030169e+01    8.82827830731292273e+00   -4.33046809194712414e-06    3.72281227748797200e-06    1.62889567722201885e-06
2041-08-29T06:18:47.575928     1.10495325317707509e+08   -9.22664493027455658e+07   -4.03576893442645371e+07    2.01838499063792831e+01    2.00371562110388801e+01    8.94575159928721497e+00   -4.38834141945977667e-06    3.66460816720062072e-06    1.60291297305101794e-06
2041-08-30T02:30:24.511600     1.11950983109391034e+08   -9.08001777812100649e+07   -3.97031481518305019e+07    1.98627560023032181e+01    2.03014236341112309e+01    9.06132409247729775e+00   -4.44526704477984536e-06    3.60565506470957061e-06    1.57660286490025339e-06
2041-08-30T22:42:01.447273     1.13383148746572524e+08   -8.93148512434338480e+07   -3.90402749939758629e+07    1.95375585720257448e+01    2.05613785191010834e+01    9.17497219761026805e+00   -4.50123360996098645e-06    3.54596607328339613e-06    1.54997119537973418e-06
